{
    "links": {
        "self": "http://www.neowsapp.com/rest/v1/neo/3837846?api_key=iIulBulltgU6a56xZRHN4H3l9WmuAYTsLGpBGhQ2"
    },
    "id": "3837846",
    "neo_reference_id": "3837846",
    "name": "(2019 AB11)",
    "designation": "2019 AB11",
    "nasa_jpl_url": "http://ssd.jpl.nasa.gov/sbdb.cgi?sstr=3837846",
    "absolute_magnitude_h": 20.0,
    "estimated_diameter": {
        "kilometers": {
            "estimated_diameter_min": 0.2658,
            "estimated_diameter_max": 0.5943468684
        },
        "meters": {
            "estimated_diameter_min": 265.8,
            "estimated_diameter_max": 594.3468684194
        },
        "miles": {
            "estimated_diameter_min": 0.1651604118,
            "estimated_diameter_max": 0.369309908
        },
        "feet": {
            "estimated_diameter_min": 872.047272,
            "estimated_diameter_max": 1949.9569797852
        }
    },
    "is_potentially_hazardous_asteroid": false,
    "close_approach_data": [
        {
            "close_approach_date": "2019-07-21",
            "close_approach_date_full": "2019-Jul-21 06:40",
            "epoch_date_close_approach": 1563691200000,
            "relative_velocity": {
                "kilometers_per_second": "27.451522186",
                "kilometers_per_hour": "98825.4798696191",
                "miles_per_hour": "61406.3099778753"
            },
            "miss_distance": {
                "astronomical": "0.4453997631",
                "lunar": "173.2605078459",
                "kilometers": "66630855.858264597",
                "miles": "41402493.9711695586"
            },
            "orbiting_body": "Earth"
        }
    ],
    "orbital_data": {
        "orbit_id": "2",
        "orbit_determination_date": "2019-07-22 06:09:23",
        "first_observation_date": "2019-01-02",
        "last_observation_date": "2019-01-15",
        "data_arc_in_days": 13,
        "observations_used": 14,
        "orbit_uncertainty": "8",
        "minimum_orbit_intersection": ".185928",
        "jupiter_tisserand_invariant": "3.062",
        "epoch_osculation": "2458491.5",
        "eccentricity": ".6266322981260424",
        "semi_major_axis": "2.502695221449133",
        "inclination": "24.55959139108513",
        "ascending_node_longitude": "298.2735897246555",
        "orbital_period": "1446.140115399849",
        "perihelion_distance": ".9344255633233983",
        "perihelion_argument": "283.8821079248133",
        "aphelion_distance": "4.070964879574868",
        "perihelion_time": "2458644.142566135676",
        "mean_anomaly": "322.0013833903988",
        "mean_motion": ".2489385338020737",
        "equinox": "J2000",
        "orbit_class": {
            "orbit_class_type": "APO",
            "orbit_class_description": "Near-Earth asteroid orbits which cross the Earth’s orbit similar to that of 1862 Apollo",
            "orbit_class_range": "a (semi-major axis) > 1.0 AU; q (perihelion) < 1.017 AU"
        }
    },
    "is_sentry_object": false
}